[
    {
        "Altitude(m)": 604969.0890155088,
        "Argument of Periapsis(deg)": 0.0,
        "Eccentricity": 0.0,
        "Inclination(deg)": 60.0,
        "Latitude(deg)": -0.09255977655978795,
        "Longitude(deg)": 54.977527735220235,
        "Mean Anomaly(deg)": 0.0,
        "RAAN(deg)": 155.0,
        "Satellite Name": "Test1 682",
        "Satellite Number": 682,
        "Semi-Major Axis(m)": 6980739.136638005,
        "Time(s)": 0
    },
    {
        "Altitude(m)": 604900.0292192351,
        "Argument of Periapsis(deg)": 0.00010418945913296404,
        "Eccentricity": 0.0,
        "Inclination(deg)": 60.0,
        "Latitude(deg)": 0.4478664993975211,
        "Longitude(deg)": 55.245650007785414,
        "Mean Anomaly(deg)": 0.6201061454618275,
        "RAAN(deg)": 154.99957995086027,
        "Satellite Name": "Test1 682",
        "Satellite Number": 682,
        "Semi-Major Axis(m)": 6980739.136638005,
        "Time(s)": 10
    }
]